STARLINK-31091          
1 58629U 23203M   26068.06615182 -.00000680  00000+0 -15186-4 0  9991
2 58629  43.0022  74.2534 0000679 241.6419 118.4364 15.27574347123421
OTTER                   
1 62623U 25009Q   26068.72300813  .00012198  00000+0  45151-3 0  9990
2 62623  97.4065 151.3812 0003573 310.7710  49.3219 15.27809545 63722
